{
  "norad_id": 55811,
  "name": "ONEWEB-0648",
  "history": [
    {
      "epoch": "2026-03-28T21:13:18.281568",
      "apogee_km": 1207.7375693466101,
      "perigee_km": 1203.8341242573597,
      "latitude_deg": 7.708303362999626,
      "longitude_deg": -154.0130204798188,
      "semi_major_axis_km": 7583.922846801985,
      "eccentricity": 0.00025735,
      "inclination_deg": 87.895,
      "raan_deg": 305.7317,
      "arg_perigee_deg": 95.752,
      "mean_anomaly_deg": 264.3903,
      "mean_motion_rev_day": 13.14503972
    },
    {
      "epoch": "2026-03-29T00:52:31.423584",
      "apogee_km": 1207.746421185684,
      "perigee_km": 1203.827049399285,
      "latitude_deg": -60.77572442077034,
      "longitude_deg": -139.39841824001633,
      "semi_major_axis_km": 7583.923735292484,
      "eccentricity": 0.0002584,
      "inclination_deg": 87.895,
      "raan_deg": 305.7014,
      "arg_perigee_deg": 95.8507,
      "mean_anomaly_deg": 264.2917,
      "mean_motion_rev_day": 13.14503741
    }
  ]
}